{
 "type": "FeatureCollection",
 "crs": {
  "type": "name",
  "properties": {
   "name": "urn:ogc:def:crs:OGC:1.3:CRS84"
  }
 },
 "features": [
  {
   "type": "Feature",
   "properties": {
    "val": 1.0,
    "zone_id": 74699377
   },
   "geometry": {
    "type": "Polygon",
    "coordinates": [
     [
      [
       38.695089,
       54.264527
      ],
      [
       38.695089,
       54.260132
      ],
      [
       38.70293,
       54.260132
      ],
      [
       38.70293,
       54.264527
      ],
      [
       38.695089,
       54.264527
      ]
     ]
    ]
   }
  },
  {
   "type": "Feature",
   "properties": {
    "val": 2.0,
    "zone_id": 74743147
   },
   "geometry": {
    "type": "Polygon",
    "coordinates": [
     [
      [
       38.679407,
       54.27332
      ],
      [
       38.679407,
       54.268923
      ],
      [
       38.687248,
       54.268923
      ],
      [
       38.687248,
       54.27332
      ],
      [
       38.679407,
       54.27332
      ]
     ]
    ]
   }
  },
  {
   "type": "Feature",
   "properties": {
    "val": 1.0,
    "zone_id": 74765027
   },
   "geometry": {
    "type": "Polygon",
    "coordinates": [
     [
      [
       38.632361,
       54.277717
      ],
      [
       38.632361,
       54.27332
      ],
      [
       38.640202,
       54.27332
      ],
      [
       38.640202,
       54.277717
      ],
      [
       38.632361,
       54.277717
      ]
     ]
    ]
   }
  },
  {
   "type": "Feature",
   "properties": {
    "val": 1.0,
    "zone_id": 74765032
   },
   "geometry": {
    "type": "Polygon",
    "coordinates": [
     [
      [
       38.671566,
       54.277717
      ],
      [
       38.671566,
       54.27332
      ],
      [
       38.679407,
       54.27332
      ],
      [
       38.679407,
       54.277717
      ],
      [
       38.671566,
       54.277717
      ]
     ]
    ]
   }
  },
  {
   "type": "Feature",
   "properties": {
    "val": 1.0,
    "zone_id": 74765034
   },
   "geometry": {
    "type": "Polygon",
    "coordinates": [
     [
      [
       38.687248,
       54.277717
      ],
      [
       38.687248,
       54.27332
      ],
      [
       38.695089,
       54.27332
      ],
      [
       38.695089,
       54.277717
      ],
      [
       38.687248,
       54.277717
      ]
     ]
    ]
   }
  }
 ]
}