{
 "type": "FeatureCollection",
 "crs": {
  "type": "name",
  "properties": {
   "name": "urn:ogc:def:crs:OGC:1.3:CRS84"
  }
 },
 "features": [
  {
   "type": "Feature",
   "properties": {
    "val": 26667.0,
    "zone_id": 74721262
   },
   "geometry": {
    "type": "Polygon",
    "coordinates": [
     [
      [
       38.687248,
       54.268923
      ],
      [
       38.687248,
       54.264527
      ],
      [
       38.695089,
       54.264527
      ],
      [
       38.695089,
       54.268923
      ],
      [
       38.687248,
       54.268923
      ]
     ]
    ]
   }
  },
  {
   "type": "Feature",
   "properties": {
    "val": 30000.0,
    "zone_id": 74765035
   },
   "geometry": {
    "type": "Polygon",
    "coordinates": [
     [
      [
       38.695089,
       54.277717
      ],
      [
       38.695089,
       54.27332
      ],
      [
       38.70293,
       54.27332
      ],
      [
       38.70293,
       54.277717
      ],
      [
       38.695089,
       54.277717
      ]
     ]
    ]
   }
  },
  {
   "type": "Feature",
   "properties": {
    "val": 30000.0,
    "zone_id": 74786915
   },
   "geometry": {
    "type": "Polygon",
    "coordinates": [
     [
      [
       38.648043,
       54.282114
      ],
      [
       38.648043,
       54.277717
      ],
      [
       38.655884,
       54.277717
      ],
      [
       38.655884,
       54.282114
      ],
      [
       38.648043,
       54.282114
      ]
     ]
    ]
   }
  },
  {
   "type": "Feature",
   "properties": {
    "val": 42500.0,
    "zone_id": 74808801
   },
   "geometry": {
    "type": "Polygon",
    "coordinates": [
     [
      [
       38.648043,
       54.286512
      ],
      [
       38.648043,
       54.282114
      ],
      [
       38.655884,
       54.282114
      ],
      [
       38.655884,
       54.286512
      ],
      [
       38.648043,
       54.286512
      ]
     ]
    ]
   }
  },
  {
   "type": "Feature",
   "properties": {
    "val": 40833.0,
    "zone_id": 74808805
   },
   "geometry": {
    "type": "Polygon",
    "coordinates": [
     [
      [
       38.679407,
       54.286512
      ],
      [
       38.679407,
       54.282114
      ],
      [
       38.687248,
       54.282114
      ],
      [
       38.687248,
       54.286512
      ],
      [
       38.679407,
       54.286512
      ]
     ]
    ]
   }
  }
 ]
}