{
 "type": "FeatureCollection",
 "crs": {
  "type": "name",
  "properties": {
   "name": "urn:ogc:def:crs:OGC:1.3:CRS84"
  }
 },
 "features": [
  {
   "type": "Feature",
   "properties": {
    "val": 0.010582628669465454,
    "zone_id": 74699371
   },
   "geometry": {
    "type": "Polygon",
    "coordinates": [
     [
      [
       38.648043,
       54.264527
      ],
      [
       38.648043,
       54.260132
      ],
      [
       38.655884,
       54.260132
      ],
      [
       38.655884,
       54.264527
      ],
      [
       38.648043,
       54.264527
      ]
     ]
    ]
   }
  },
  {
   "type": "Feature",
   "properties": {
    "val": 0.030374157967534284,
    "zone_id": 74743144
   },
   "geometry": {
    "type": "Polygon",
    "coordinates": [
     [
      [
       38.655884,
       54.27332
      ],
      [
       38.655884,
       54.268923
      ],
      [
       38.663725,
       54.268923
      ],
      [
       38.663725,
       54.27332
      ],
      [
       38.655884,
       54.27332
      ]
     ]
    ]
   }
  },
  {
   "type": "Feature",
   "properties": {
    "val": 0.010752688172043013,
    "zone_id": 74743145
   },
   "geometry": {
    "type": "Polygon",
    "coordinates": [
     [
      [
       38.663725,
       54.27332
      ],
      [
       38.663725,
       54.268923
      ],
      [
       38.671566,
       54.268923
      ],
      [
       38.671566,
       54.27332
      ],
      [
       38.663725,
       54.27332
      ]
     ]
    ]
   }
  },
  {
   "type": "Feature",
   "properties": {
    "val": 0.029970645331447346,
    "zone_id": 74765030
   },
   "geometry": {
    "type": "Polygon",
    "coordinates": [
     [
      [
       38.655884,
       54.277717
      ],
      [
       38.655884,
       54.27332
      ],
      [
       38.663725,
       54.27332
      ],
      [
       38.663725,
       54.277717
      ],
      [
       38.655884,
       54.277717
      ]
     ]
    ]
   }
  },
  {
   "type": "Feature",
   "properties": {
    "val": 0.011863786113743858,
    "zone_id": 74786916
   },
   "geometry": {
    "type": "Polygon",
    "coordinates": [
     [
      [
       38.655884,
       54.282114
      ],
      [
       38.655884,
       54.277717
      ],
      [
       38.663725,
       54.277717
      ],
      [
       38.663725,
       54.282114
      ],
      [
       38.655884,
       54.282114
      ]
     ]
    ]
   }
  }
 ]
}